YAOGAN-34 02            
1 52084U 22027A   22105.23562873 -.00009112  00000+0 -14988-1 0  9993
2 52084  63.3981 155.3190 0012603 278.2139  81.8342 13.46456810  3905
CZ-4C R/B               
1 52085U 22027B   22105.49925274 -.00000083  00000+0  14351-4 0  9994
2 52085  63.3975 152.1694 0103750  41.4249 319.4595 13.65314076  3996
SOYUZ-MS 21             
1 52086U 22028A   22105.52091101  .00007366  00000+0  13658-3 0  9991
2 52086  51.6438 286.9651 0004681  28.1670  37.7896 15.50070050335464
STARLINK-3537           
1 52088U 22029A   22105.83334491  .00373782  68938-4  79267-3 0  9995
2 52088  53.2157   4.1061 0005435 351.5808  75.5472 15.98216435  5657
STARLINK-3722           
1 52089U 22029B   22105.58334491 -.00710675  00000+0 -12047-1 0  9998
2 52089  53.2173   9.4470 0001230  93.5825 125.4042 15.53434813  5559
STARLINK-3712           
1 52090U 22029C   22105.58334491 -.00710315  00000+0 -11872-1 0  9996
2 52090  53.2173   9.4458 0001233  79.3406 159.0934 15.53819335  3701
STARLINK-3713           
1 52091U 22029D   22105.58334491 -.00710589  00000+0 -11989-1 0  9999
2 52091  53.2173   9.4465 0001245  96.5636 128.9441 15.53563042  3708
STARLINK-3716           
1 52092U 22029E   22105.58334491 -.00710488  00000+0 -11931-1 0  9995
2 52092  53.2173   9.4463 0001243  97.0297 134.9606 15.53691225  5554
STARLINK-3673           
1 52093U 22029F   22105.58334491 -.00710196  00000+0 -11762-1 0  9994
2 52093  53.2174   9.4422 0001199  86.4190 165.5919 15.54068181  3707
STARLINK-3714           
1 52094U 22029G   22105.58334491 -.00710409  00000+0 -11818-1 0  9994
2 52094  53.2174   9.4450 0001216  96.0769 148.7622 15.53947615  3709
STARLINK-3701           
1 52095U 22029H   22105.58334491 -.00710165  00000+0 -11651-1 0  9999
2 52095  53.2174   9.4405 0001217 103.8620 160.7704 15.54324601  3704
STARLINK-3717           
1 52096U 22029J   22105.83334491 -.00113576  00000+0 -81012-3 0  9991
2 52096  53.2171   6.9032 0001158 120.5323  24.7588 15.73362418  5609
STARLINK-3676           
1 52097U 22029K   22105.89395226  .02631948  86009-2  33425-2 0  9999
2 52097  53.2099   3.6991 0004348 284.1299 174.2204 16.08895986  5662
STARLINK-3665           
1 52098U 22029L   22105.58334491 -.00710219  00000+0 -11707-1 0  9994
2 52098  53.2174   9.4416 0001236 102.7110 155.6300 15.54196404  3705
STARLINK-3662           
1 52099U 22029M   22105.87082658  .02859882  17897-1  36979-2 0  9995
2 52099  53.2214   3.7582 0001719 290.4527  69.7771 16.10992770  5662
STARLINK-3702           
1 52100U 22029N   22105.58334491 -.00710219  00000+0 -11597-1 0  9995
2 52100  53.2174   9.4395 0001237 107.7187 163.1664 15.54452828  5552
STARLINK-3703           
1 52101U 22029P   22105.83334491 -.00712575  00000+0 -11697-1 0  9992
2 52101  53.2177   8.2335 0001350 110.7156 133.6298 15.54316988  5587
STARLINK-3709           
1 52102U 22029Q   22105.83334491 -.00068780  00000+0 -48761-3 0  9999
2 52102  53.2170   7.3175 0001095 121.0781 181.8323 15.73297917  5594
STARLINK-3705           
1 52103U 22029R   22105.83334491  .00170562  00000+0  12002-2 0  9998
2 52103  53.2175   7.3037 0001489 110.5955 195.4418 15.73101554  5597
STARLINK-3693           
1 52104U 22029S   22105.34848471  .02355570  48840-2  36569-2 0  9990
2 52104  53.2145   6.6875 0005328 294.1765 174.0716 16.04698590  5579
STARLINK-3706           
1 52105U 22029T   22105.91667824 -.00113069  00000+0 -80768-3 0  9994
2 52105  53.2171   6.8958 0001132 116.0059 303.7173 15.73326632  5613
STARLINK-3670           
1 52106U 22029U   22105.83334491 -.00712628  00000+0 -11643-1 0  9997
2 52106  53.2177   8.2325 0001285 100.2510 150.3500 15.54445291  5588
STARLINK-3658           
1 52107U 22029V   22105.83334491  .00195530  00000+0  13720-2 0  9992
2 52107  53.2175   7.2988 0001331 102.5095 205.8262 15.73086995  5591
STARLINK-3698           
1 52108U 22029W   22105.91667824 -.00064877  00000+0 -45979-3 0  9994
2 52108  53.2171   6.8974 0001269 113.7930 305.3727 15.73281584  5616
STARLINK-3687           
1 52110U 22029Y   22105.58334491  .00009069  00000+0  68680-4 0  9996
2 52110  53.2173   8.5431 0001338 122.8030 208.4857 15.73299163  3704
STARLINK-3708           
1 52111U 22029Z   22105.83334491 -.00046954  00000+0 -33077-3 0  9992
2 52111  53.2173   7.3005 0001077 119.4478 191.4059 15.73286607  5590
STARLINK-3734           
1 52112U 22029AA  22105.83334491 -.00068466  00000+0 -48463-3 0  9990
2 52112  53.2174   7.3046 0001209 132.0968 176.9191 15.73331737  5599
STARLINK-3736           
1 52113U 22029AB  22105.83334491 -.00108086  00000+0 -77085-3 0  9996
2 52113  53.2173   7.2980 0001068 115.5319 196.4339 15.73344369  5590
STARLINK-3737           
1 52114U 22029AC  22105.83334491 -.00070175  00000+0 -49754-3 0  9996
2 52114  53.2173   7.3017 0001357 117.0165 193.2561 15.73303128  5602
STARLINK-3685           
1 52115U 22029AD  22105.58334491  .00130000  00000+0  91554-3 0  9996
2 52115  53.2172   8.5317 0000919 130.1682 206.2357 15.73222427  3700
STARLINK-3735           
1 52116U 22029AE  22105.83334491 -.00065917  00000+0 -46627-3 0  9992
2 52116  53.2175   7.2997 0001178 118.5151 192.8333 15.73332351  5594
STARLINK-3738           
1 52117U 22029AF  22105.83334491 -.00097924  00000+0 -69787-3 0  9998
2 52117  53.2174   7.2931 0001155 122.0411 192.2710 15.73319181  5607
STARLINK-3743           
1 52118U 22029AG  22105.83334491 -.00069857  00000+0 -49548-3 0  9996
2 52118  53.2175   7.2971 0001375 116.5964 195.9770 15.73292232  5599
STARLINK-3558           
1 52119U 22029AH  22105.83334491 -.00097604  00000+0 -69538-3 0  9999
2 52119  53.2174   7.2906 0001179 120.0228 195.4074 15.73324596  5605
STARLINK-3534           
1 52120U 22029AJ  22105.83334491 -.00061354  00000+0 -43421-3 0  9997
2 52120  53.2175   7.2948 0001193 119.8988 193.8648 15.73291872  5608
STARLINK-3678           
1 52121U 22029AK  22105.91667824 -.00112934  00000+0 -80579-3 0  9992
2 52121  53.2173   6.8766 0001177 123.7555 304.9940 15.73352691  5625
STARLINK-3726           
1 52122U 22029AL  22105.83334491 -.00090433  00000+0 -64538-3 0  9991
2 52122  53.2175   7.2917 0001270 112.2277 202.8563 15.73253496  5595
STARLINK-3725           
1 52123U 22029AM  22105.83334491 -.00074171  00000+0 -52662-3 0  9998
2 52123  53.2175   7.2856 0001122 112.6366 205.1349 15.73293168  5607
STARLINK-3684           
1 52124U 22029AN  22105.91667824 -.00104673  00000+0 -74760-3 0  9991
2 52124  53.2174   6.8781 0001306 115.5479 312.7649 15.73296063  5616
STARLINK-3727           
1 52125U 22029AP  22105.83334491 -.00099434  00000+0 -70892-3 0  9994
2 52125  53.2174   7.2842 0001216 118.0408 200.2804 15.73315896  5609
STARLINK-3732           
1 52126U 22029AQ  22105.58334491  .00023082  00000+0  16762-3 0  9997
2 52126  53.2175   8.5238 0001271 124.9481 215.5051 15.73312431  3706
STARLINK-3715           
1 52127U 22029AR  22105.83334491 -.00021844  00000+0 -15113-3 0  9991
2 52127  53.2176   7.2819 0001301 119.1062 200.2678 15.73275231  5595
STARLINK-3719           
1 52128U 22029AS  22105.85662304  .04952614  11762-4  27624-2 0  9992
2 52128  53.2064   3.4664 0006845 269.7712 178.3823 16.18614594  5664
STARLINK-3661           
1 52129U 22029AT  22105.83334491 -.00096989  00000+0 -68978-3 0  9992
2 52129  53.2176   7.2798 0001167 113.9738 206.5155 15.73363070  5605
STARLINK-3710           
1 52130U 22029AU  22105.49353009  .02724903  10435-1  34406-2 0  9999
2 52130  53.2105   5.6696 0004251 300.0958  55.2262 16.09443370  5596
STARLINK-3711           
1 52131U 22029AV  22105.83334491 -.00097272  00000+0 -69298-3 0  9997
2 52131  53.2175   7.2780 0001093 123.7047 197.4740 15.73324776  5606
STARLINK-3718           
1 52132U 22029AW  22105.83334491 -.00098329  00000+0 -69984-3 0  9994
2 52132  53.2176   7.2813 0001148 119.0845 200.8695 15.73351241  5605
STARLINK-3707           
1 52133U 22029AX  22105.83334491 -.00069642  00000+0 -49294-3 0  9993
2 52133  53.2175   7.2757 0001052 124.9494 197.2255 15.73339869  5604
STARLINK-3721           
1 52134U 22029AY  22105.83334491  .00022502  00000+0  16361-3 0  9995
2 52134  53.2177   7.2780 0001307 125.7389 195.8261 15.73301583  5601
STARLINK-3729           
1 52135U 22029AZ  22105.83334491 -.00096444  00000+0 -68688-3 0  9993
2 52135  53.2176   7.2717 0001195 117.0132 206.9856 15.73327628  5608
STARLINK-3720           
1 52136U 22029BA  22105.83334491 -.00062653  00000+0 -44294-3 0  9996
2 52136  53.2177   7.2752 0001336 115.7043 207.1412 15.73324134  5602
STARLINK-3733           
1 52137U 22029BB  22105.83334491 -.00102768  00000+0 -73320-3 0  9991
2 52137  53.2176   7.2702 0001282 104.3340 220.3564 15.73313426  5608
STARLINK-3723           
1 52138U 22029BC  22105.83334491 -.00067397  00000+0 -47604-3 0  9996
2 52138  53.2177   7.2743 0001375 135.2980 187.8997 15.73374791  5600
STARLINK-3730           
1 52139U 22029BD  22105.83334491 -.00117641  00000+0 -84137-3 0  9997
2 52139  53.2165   6.8973 0001232 125.6461  20.3259 15.73315384  5602
STARLINK-3682           
1 52140U 22029BE  22105.83334491 -.00058720  00000+0 -41516-3 0  9995
2 52140  53.2178   7.2689 0001233 120.3415 205.4123 15.73296767  5608
FALCON 9 DEB            
1 52141U 22029BF  22105.73615929  .00502978  12653-3  79683-3 0  9997
2 52141  53.2140   4.3070 0005997 317.7253  42.3317 16.03221061  4402
FALCON 9 DEB            
1 52142U 22029BG  22105.73606140  .00440768  97338-4  74153-3 0  9992
2 52142  53.2141   4.3089 0005361 345.3087  14.7789 16.02226259  4400
FALCON 9 DEB            
1 52143U 22029BH  22105.02424102  .00637004  20521-3  94535-3 0  9997
2 52143  53.2085   7.6789 0003865 296.4863  63.5774 16.04324331  4291
FALCON 9 DEB            
1 52144U 22029BJ  22105.75471455  .00714900  27728-3  83369-3 0  9991
2 52144  53.2122   3.6981 0003713 278.3236  81.7378 16.08201697  4418
